     2.100          NAVIGATION                              RINEX VERSION / TYPE
fic2rin                                 08/11/2009 01:28:26 PGM / RUN BY / DATE
                                                            END OF HEADER
15 09  8 10 16  0  0.0 -.313534867018D-03 -.193267624127D-11  .000000000000D+00
     .470000000000D+02 -.401875000000D+02  .452518849226D-08 -.549134964007D+00
    -.224262475967D-05  .155005906709D-02  .943429768085D-05  .515364764214D+04
     .144000000000D+06  .931322574615D-08  .305485353720D+00 -.819563865662D-07
     .956279823384D+00  .193125000000D+03 -.502072228158D+00 -.807426489697D-08
    -.113219001740D-09  .100000000000D+01  .154400000000D+04  .000000000000D+00
     .240000000000D+01  .000000000000D+00 -.977888703346D-08  .470000000000D+02
     .136806000000D+06  .400000000000D+01
16 09  8 10 16  0  0.0  .243056565523D-04 -.375166564481D-11  .000000000000D+00
     .360000000000D+02 -.419687500000D+02  .477234164433D-08  .882894040355D+00
    -.221654772758D-05  .531742942985D-02  .417605042458D-05  .515359247208D+04
     .144000000000D+06  .670552253723D-07  .243817246509D+01 -.167638063431D-07
     .969189149407D+00  .297750000000D+03 -.295778732806D+00 -.828820237975D-08
    -.307512809143D-09  .100000000000D+01  .154400000000D+04  .000000000000D+00
     .240000000000D+01  .000000000000D+00 -.977888703346D-08  .360000000000D+02
     .136806000000D+06  .400000000000D+01
17 09  8 10 16  0  0.0  .763861462474D-04  .272848410532D-11  .000000000000D+00
     .770000000000D+02 -.364375000000D+02  .445411410316D-08 -.241576697793D+00
    -.204145908356D-05  .460863346234D-02  .111646950245D-04  .515372280121D+04
     .144000000000D+06  .819563865662D-07 -.280283163358D+01  .335276126862D-07
     .960184293221D+00  .164125000000D+03 -.263682462290D+01 -.802354849872D-08
    -.407516974718D-09  .100000000000D+01  .154400000000D+04  .000000000000D+00
     .240000000000D+01  .000000000000D+00 -.102445483208D-07  .770000000000D+02
     .136806000000D+06  .400000000000D+01
18 09  8 10 16  0  0.0  .404799357057D-05  .295585778076D-11  .000000000000D+00
     .810000000000D+02 -.715625000000D+01  .518914472013D-08  .108433655056D+01
    -.447034835815D-06  .108188132290D-01  .393763184547D-05  .515361567497D+04
     .144000000000D+06 -.117346644402D-06 -.698335370528D+00  .838190317154D-07
     .941204102940D+00  .292656250000D+03 -.239510716167D+01 -.868179020284D-08
    -.215366113720D-09  .100000000000D+01  .154400000000D+04  .000000000000D+00
     .240000000000D+01  .000000000000D+00 -.107102096081D-07  .810000000000D+02
     .136806000000D+06  .400000000000D+01
19 09  8 10 16  0  0.0  .156904570758D-04 -.147792889038D-11  .000000000000D+00
     .101000000000D+03 -.228125000000D+02  .435303846438D-08 -.868704617126D+00
    -.118464231491D-05  .578771042638D-02  .110771507025D-04  .515364174080D+04
     .144000000000D+06 -.204890966415D-07 -.274701990006D+01 -.134110450745D-06
     .957858862049D+00  .167656250000D+03 -.296613507509D+00 -.787068498848D-08
    -.271797035723D-09  .100000000000D+01  .154400000000D+04  .000000000000D+00
     .240000000000D+01  .000000000000D+00 -.144354999065D-07  .101000000000D+03
     .136806000000D+06  .400000000000D+01
20 09  8 10 16  0  0.0  .751041807234D-04 -.909494701773D-12  .000000000000D+00
     .700000000000D+02 -.831250000000D+01  .523164649050D-08  .127389154059D+01
    -.461935997009D-06  .384478550404D-02  .331550836563D-05  .515378956223D+04
     .144000000000D+06 -.875443220139D-07 -.752209330069D+00 -.558793544769D-07
     .940857218731D+00  .301875000000D+03  .133983566855D+01 -.870214819369D-08
    -.650027076237D-10  .100000000000D+01  .154400000000D+04  .000000000000D+00
     .340000000000D+01  .000000000000D+00 -.651925802231D-08  .700000000000D+02
     .136806000000D+06  .400000000000D+01
21 09  8 10 16  0  0.0 -.234972685575D-05 -.216004991671D-11  .000000000000D+00
     .107000000000D+03  .728125000000D+02  .499735101687D-08  .234869881102D+01
     .361166894436D-05  .155044588028D-01  .806897878647D-05  .515376792526D+04
     .144000000000D+06 -.273808836937D-06 -.175688556881D+01 -.206753611565D-06
     .933383856373D+00  .209843750000D+03 -.256795983751D+01 -.822891419588D-08
     .255367779950D-09  .100000000000D+01  .154400000000D+04  .000000000000D+00
     .240000000000D+01  .000000000000D+00 -.121071934700D-07  .107000000000D+03
     .136806000000D+06  .400000000000D+01
22 09  8 10 16  0  0.0  .193625222892D-03 -.795807864051D-12  .000000000000D+00
     .170000000000D+02 -.950000000000D+01  .523164649050D-08  .627315993543D-01
    -.543892383575D-06  .526726909447D-02  .386498868465D-05  .515365720177D+04
     .144000000000D+06 -.856816768646D-07 -.692805440710D+00  .651925802231D-07
     .938876159938D+00  .294593750000D+03 -.189799256392D+01 -.864714590262D-08
    -.100361323309D-09  .100000000000D+01  .154400000000D+04  .000000000000D+00
     .240000000000D+01  .000000000000D+00 -.176951289177D-07  .170000000000D+02
     .136806000000D+06  .400000000000D+01
23 09  8 10 16  0  0.0  .389597378671D-03 -.227373675443D-12  .000000000000D+00
     .140000000000D+02 -.416562500000D+02  .416481633846D-08 -.139136363122D+01
    -.253878533840D-05  .641245068982D-02  .105611979961D-04  .515358790588D+04
     .144000000000D+06  .353902578354D-07  .326479853459D+00 -.689178705215D-07
     .970305235942D+00  .181343750000D+03  .293900703237D+01 -.791282960111D-08
    -.325013538118D-10  .100000000000D+01  .154400000000D+04  .000000000000D+00
     .240000000000D+01  .000000000000D+00 -.200234353542D-07  .140000000000D+02
     .136806000000D+06  .400000000000D+01
24 09  8 10 16  0  0.0  .211282633245D-03  .295585778076D-11  .000000000000D+00
     .990000000000D+02  .683125000000D+02  .471519640686D-08  .996021476407D+00
     .361353158951D-05  .656947575044D-02  .782869756222D-05  .515366991806D+04
     .144000000000D+06  .173225998878D-06 -.172345374040D+01 -.689178705215D-07
     .949996209875D+00  .220968750000D+03 -.644617299538D+00 -.821069915143D-08
     .315013121561D-09  .100000000000D+01  .154400000000D+04  .000000000000D+00
     .240000000000D+01  .000000000000D+00 -.139698386192D-08  .990000000000D+02
     .136806000000D+06  .400000000000D+01
25 09  8 10 16  0  0.0  .547126401216D-03  .161435309565D-10  .000000000000D+00
     .130000000000D+02  .423437500000D+02  .442018411841D-08  .150749852694D+01
     .213086605072D-05  .112430336885D-01  .889971852303D-05  .515364583778D+04
     .144000000000D+06  .203028321266D-06  .127379570776D+01 -.178813934326D-06
     .970312168711D+00  .212812500000D+03 -.121003362744D+01 -.792890169915D-08
     .467519474063D-09  .100000000000D+01  .154400000000D+04  .000000000000D+00
     .240000000000D+01  .000000000000D+00 -.745058059692D-08  .130000000000D+02
     .136806000000D+06  .400000000000D+01
26 09  8 10 16  0  0.0  .645904801786D-04 -.227373675443D-12  .000000000000D+00
     .290000000000D+02 -.344062500000D+02  .359336396375D-08  .289884830579D+01
    -.193901360035D-05  .202102604089D-01  .101961195469D-04  .515492059517D+04
     .144000000000D+06  .298023223877D-07  .377725246184D+00 -.286847352982D-06
     .992702188431D+00  .198937500000D+03  .103012189056D+01 -.725315926605D-08
    -.803604901941D-10  .100000000000D+01  .154400000000D+04  .000000000000D+00
     .240000000000D+01  .000000000000D+00 -.651925802231D-08  .290000000000D+02
     .136806000000D+06  .400000000000D+01
27 09  8 10 16  0  0.0  .731009058654D-04  .329691829393D-11  .000000000000D+00
     .950000000000D+02  .340312500000D+02  .446804325479D-08 -.606834504064D+00
     .181235373020D-05  .212953118607D-01  .872649252415D-05  .515375263596D+04
     .144000000000D+06 -.266358256340D-06  .131044961616D+01  .540167093277D-07
     .975044558017D+00  .227500000000D+03 -.156084694194D+01 -.836141971526D-08
     .507878298027D-09  .100000000000D+01  .154400000000D+04  .000000000000D+00
     .340000000000D+01  .000000000000D+00 -.419095158577D-08  .950000000000D+02
     .136806000000D+06  .400000000000D+01
29 09  8 10 16  0  0.0  .474443659186D-04  .329691829393D-11  .000000000000D+00
     .760000000000D+02 -.356875000000D+02  .436053877680D-08  .234611699175D+01
    -.183284282684D-05  .324446312152D-02  .105891376734D-04  .515363649368D+04
     .144000000000D+06  .167638063431D-07 -.279463126969D+01  .428408384323D-07
     .960429618732D+00  .172500000000D+03 -.128917691329D+01 -.783389774186D-08
    -.320370487574D-09  .100000000000D+01  .154400000000D+04  .000000000000D+00
     .240000000000D+01  .000000000000D+00 -.884756445885D-08  .760000000000D+02
     .136806000000D+06  .400000000000D+01
30 09  8 10 16  0  0.0  .167692545801D-03  .295585778076D-11  .000000000000D+00
     .145000000000D+03 -.296250000000D+02  .523164649050D-08  .802293992388D+00
    -.159256160259D-05  .117939008633D-01  .462867319584D-05  .515368035316D+04
     .144000000000D+06 -.189989805222D-06  .237214792345D+01  .502914190292D-07
     .952842685654D+00  .289625000000D+03  .143981103366D+01 -.869750514314D-08
    -.155363614375D-09  .100000000000D+01  .154400000000D+04  .000000000000D+00
     .340000000000D+01  .000000000000D+00 -.838190317154D-08  .145000000000D+03
     .136806000000D+06  .400000000000D+01
20 09  8 10 15 59 44.0  .751023180783D-04 -.909494701773D-12  .000000000000D+00
     .200000000000D+01 -.831250000000D+01  .523164649050D-08  .127155784393D+01
    -.461935997009D-06  .384478666820D-02  .331550836563D-05  .515378956985D+04
     .143984000000D+06 -.875443220139D-07 -.752209201333D+00 -.558793544769D-07
     .940857218731D+00  .301875000000D+03  .133983571244D+01 -.870214819369D-08
    -.650027076237D-10  .100000000000D+01  .154400000000D+04  .000000000000D+00
     .240000000000D+01  .000000000000D+00 -.651925802231D-08  .200000000000D+01
     .137076000000D+06  .400000000000D+01
